NORAD_CAT_ID,OBJECT_NAME,OBJECT_TYPE,EPOCH,MEAN_MOTION,ECCENTRICITY,INCLINATION,RA_OF_ASC_NODE,ARG_OF_PERICENTER,MEAN_ANOMALY,BSTAR,MEAN_MOTION_DOT,MEAN_MOTION_DDOT,TLE_LINE0,TLE_LINE1,TLE_LINE2,SEMIMAJOR_AXIS,PERIOD,APOGEE,PERIGEE,DECAYED
52262.0,STARLINK-3761,PAYLOAD,2024-07-09 13:29:02,15.0882891,0.0001509,53.218,319.0676,93.2774,266.839,-9.3017e-05,-1.768e-05,0.0,0 STARLINK-3761,1 52262U 22041B   24191.56183370 -.00001768  00000-0 -93017-4 0  9994,2 52262  53.2180 319.0676 0001509  93.2774 266.8390 15.08828910123773,6917.914,95.438,540.823,538.735,0.0
52262.0,STARLINK-3761,PAYLOAD,2024-07-09 15:04:25,15.08825625,0.0001493,53.2177,318.7706,85.1039,275.0123,-3.5797e-05,-8.57e-06,0.0,0 STARLINK-3761,1 52262U 22041B   24191.62807479 -.00000857  00000-0 -35797-4 0  9993,2 52262  53.2177 318.7706 0001493  85.1039 275.0123 15.08825625122567,6917.924,95.438,540.822,538.756,0.0
52262.0,STARLINK-3761,PAYLOAD,2024-07-10 10:09:03,15.0884753,0.0001524,53.2173,315.2018,83.4257,276.6908,0.0012259,0.0001928,0.0,0 STARLINK-3761,1 52262U 22041B   24192.42295948  .00019280  00000-0  12259-2 0  9998,2 52262  53.2173 315.2018 0001524  83.4257 276.6908 15.08847530123905,6917.857,95.437,540.777,538.668,0.0
52262.0,STARLINK-3761,PAYLOAD,2024-07-10 14:55:12,15.08858319,0.0001493,53.2171,314.3093,83.2741,276.8421,0.0013578,0.00021398,0.0,0 STARLINK-3761,1 52262U 22041B   24192.62167719  .00021398  00000-0  13578-2 0  9992,2 52262  53.2171 314.3093 0001493  83.2741 276.8421 15.08858319122714,6917.824,95.436,540.722,538.657,0.0
52262.0,STARLINK-3761,PAYLOAD,2024-07-11 13:10:36,15.08855243,0.0001486,53.2174,310.147,83.8709,276.2453,0.00029592,4.427e-05,0.0,0 STARLINK-3761,1 52262U 22041B   24193.54903030  .00004427  00000-0  29592-3 0  9996,2 52262  53.2174 310.1470 0001486  83.8709 276.2453 15.08855243122859,6917.834,95.437,540.727,538.671,0.0
52262.0,STARLINK-3761,PAYLOAD,2024-07-11 14:45:59,15.08854247,0.0001416,53.2168,309.8487,83.0174,277.0979,0.00031124,4.671e-05,0.0,0 STARLINK-3761,1 52262U 22041B   24193.61527038  .00004671  00000-0  31124-3 0  9999,2 52262  53.2168 309.8487 0001416  83.0174 277.0979 15.08854247124088,6917.837,95.437,540.681,538.722,0.0
52262.0,STARLINK-3761,PAYLOAD,2024-07-12 13:01:23,15.08837302,0.0001246,53.2165,305.6885,90.2845,269.829,-0.0001616,-2.859e-05,0.0,0 STARLINK-3761,1 52262U 22041B   24194.54263156 -.00002859  00000-0 -16160-3 0  9991,2 52262  53.2165 305.6885 0001246  90.2845 269.8290 15.08837302124221,6917.889,95.438,540.616,538.892,0.0
52262.0,STARLINK-3761,PAYLOAD,2024-07-12 14:36:46,15.08838909,0.0001172,53.2163,305.3914,89.0354,271.0772,-0.00011911,-2.183e-05,0.0,0 STARLINK-3761,1 52262U 22041B   24194.60887093 -.00002183  00000-0 -11911-3 0  9999,2 52262  53.2163 305.3914 0001172  89.0354 271.0772 15.08838909123018,6917.884,95.438,540.559,538.938,0.0
52262.0,STARLINK-3761,PAYLOAD,2024-07-13 00:09:04,15.08847699,0.0001239,53.2172,303.6068,90.0333,270.0801,0.00010637,1.406e-05,0.0,0 STARLINK-3761,1 52262U 22041B   24195.00630734  .00001406  00000-0  10637-3 0  9991,2 52262  53.2172 303.6068 0001239  90.0333 270.0801 15.08847699124291,6917.857,95.437,540.579,538.865,0.0
52262.0,STARLINK-3761,PAYLOAD,2024-07-13 12:52:10,15.08835996,0.0001457,53.2179,301.2271,101.2042,258.9114,-3.2586e-05,-8.06e-06,0.0,0 STARLINK-3761,1 52262U 22041B   24195.53623271 -.00000806  00000-0 -32586-4 0  9990,2 52262  53.2179 301.2271 0001457 101.2042 258.9114 15.08835996124370,6917.893,95.438,540.766,538.75,0.0
52262.0,STARLINK-3761,PAYLOAD,2024-07-13 14:27:33,15.0883722,0.0001283,53.217,300.9296,98.8312,261.2826,4.1005e-06,-2.23e-06,0.0,0 STARLINK-3761,1 52262U 22041B   24195.60247242 -.00000223  00000-0  41005-5 0  9997,2 52262  53.2170 300.9296 0001283  98.8312 261.2826 15.08837220123167,6917.889,95.438,540.641,538.866,0.0
52262.0,STARLINK-3761,PAYLOAD,2024-07-13 16:02:56,15.08841237,0.0001306,53.2172,300.6323,95.5461,264.568,9.9609e-05,1.298e-05,0.0,0 STARLINK-3761,1 52262U 22041B   24195.66871146  .00001298  00000-0  99609-4 0  9993,2 52262  53.2172 300.6323 0001306  95.5461 264.5680 15.08841237123170,6917.877,95.437,540.645,538.838,0.0
52262.0,STARLINK-3761,PAYLOAD,2024-07-14 14:18:20,15.08850507,0.0001089,53.2164,296.4671,91.3738,268.7379,0.00045036,6.889e-05,0.0,0 STARLINK-3761,1 52262U 22041B   24196.59606992  .00006889  00000-0  45036-3 0  9996,2 52262  53.2164 296.4671 0001089  91.3738 268.7379 15.08850507123315,6917.848,95.437,540.467,538.96,0.0
52262.0,STARLINK-3761,PAYLOAD,2024-07-15 12:33:44,15.0883628,0.0001097,53.2152,292.3038,87.346,272.7658,-1.0389e-05,-4.53e-06,0.0,0 STARLINK-3761,1 52262U 22041B   24197.52343175 -.00000453  00000-0 -10389-4 0  9998,2 52262  53.2152 292.3038 0001097  87.3460 272.7658 15.08836280124677,6917.892,95.438,540.516,538.998,0.0
52262.0,STARLINK-3761,PAYLOAD,2024-07-15 14:09:07,15.0883918,0.0001176,53.2155,292.0065,85.3973,274.7154,0.00010005,1.305e-05,0.0,0 STARLINK-3761,1 52262U 22041B   24197.58967174  .00001305  00000-0  10005-3 0  9994,2 52262  53.2155 292.0065 0001176  85.3973 274.7154 15.08839180123463,6917.883,95.438,540.561,538.934,0.0
52262.0,STARLINK-3761,PAYLOAD,2024-07-15 23:41:26,15.08851119,0.0001166,53.2159,290.2222,87.5008,272.6117,0.00055188,8.509e-05,0.0,0 STARLINK-3761,1 52262U 22041B   24197.98710930  .00008509  00000-0  55188-3 0  9998,2 52262  53.2159 290.2222 0001166  87.5008 272.6117 15.08851119124748,6917.846,95.437,540.518,538.905,0.0
52262.0,STARLINK-3761,PAYLOAD,2024-07-16 12:24:31,15.08844106,0.0001121,53.2153,287.8434,93.9831,266.1289,0.00046713,7.155e-05,0.0,0 STARLINK-3761,1 52262U 22041B   24198.51703234  .00007155  00000-0  46713-3 0  9997,2 52262  53.2153 287.8434 0001121  93.9831 266.1289 15.08844106124820,6917.868,95.437,540.508,538.957,0.0
52262.0,STARLINK-3761,PAYLOAD,2024-07-17 05:53:46,15.08844826,0.000118,53.214,284.5745,83.8271,276.2856,0.00056577,8.729e-05,0.0,0 STARLINK-3761,1 52262U 22041B   24199.24567552  .00008729  00000-0  56577-3 0  9996,2 52262  53.2140 284.5745 0001180  83.8271 276.2856 15.08844826124939,6917.866,95.437,540.547,538.914,0.0
52262.0,STARLINK-3761,PAYLOAD,2024-07-17 12:15:19,15.08836432,0.0001165,53.2167,283.3839,84.8782,275.2343,8.2969e-05,1.033e-05,0.0,0 STARLINK-3761,1 52262U 22041B   24199.51063858  .00001033  00000-0  82969-4 0  9992,2 52262  53.2167 283.3839 0001165  84.8782 275.2343 15.08836432124978,6917.891,95.438,540.562,538.95,0.0
52262.0,STARLINK-3761,PAYLOAD,2024-07-18 12:06:06,15.08844627,0.0001333,53.2166,278.9219,91.1598,268.9547,0.00021192,3.087e-05,0.0,0 STARLINK-3761,1 52262U 22041B   24200.50423762  .00003087  00000-0  21192-3 0  9999,2 52262  53.2166 278.9219 0001333  91.1598 268.9547 15.08844627123904,6917.866,95.437,540.653,538.809,0.0
52262.0,STARLINK-3761,PAYLOAD,2024-07-19 05:35:20,15.08839518,0.0001359,53.2172,275.6528,93.5522,266.5626,0.00034132,5.148e-05,0.0,0 STARLINK-3761,1 52262U 22041B   24201.23288156  .00005148  00000-0  34132-3 0  9994,2 52262  53.2172 275.6528 0001359  93.5522 266.5626 15.08839518125232,6917.882,95.438,540.687,538.807,0.0
52262.0,STARLINK-3761,PAYLOAD,2024-07-19 11:56:53,15.0883055,0.0001275,53.2168,274.4649,82.3738,277.7399,0.00022958,3.367e-05,0.0,0 STARLINK-3761,1 52262U 22041B   24201.49784560  .00003367  00000-0  22958-3 0  9996,2 52262  53.2168 274.4649 0001275  82.3738 277.7399 15.08830550125272,6917.909,95.438,540.656,538.892,0.0
52262.0,STARLINK-3761,PAYLOAD,2024-07-19 21:29:11,15.08850909,0.0001369,53.2162,272.6787,63.1801,296.9331,0.0001547,2.176e-05,0.0,0 STARLINK-3761,1 52262U 22041B   24201.89527320  .00002176  00000-0  15470-3 0  9997,2 52262  53.2162 272.6787 0001369  63.1801 296.9331 15.08850909124112,6917.847,95.437,540.659,538.765,0.0
52262.0,STARLINK-3761,PAYLOAD,2024-07-20 11:47:40,15.08835962,0.0001477,53.2166,270.0052,94.8699,265.2462,2.2122e-05,6.4e-07,0.0,0 STARLINK-3761,1 52262U 22041B   24202.49144258  .00000064  00000-0  22122-4 0  9996,2 52262  53.2166 270.0052 0001477  94.8699 265.2462 15.08835962125420,6917.893,95.438,540.78,538.736,0.0
52262.0,STARLINK-3761,PAYLOAD,2024-07-20 21:19:59,15.08846112,0.0001554,53.2171,268.2208,92.1257,267.9913,0.00013898,1.925e-05,0.0,0 STARLINK-3761,1 52262U 22041B   24202.88887768  .00001925  00000-0  13898-3 0  9995,2 52262  53.2171 268.2208 0001554  92.1257 267.9913 15.08846112124265,6917.862,95.437,540.802,538.652,0.0
52262.0,STARLINK-3761,PAYLOAD,2024-07-21 11:38:27,15.08834656,0.0001698,53.2172,265.5426,83.1168,277.0017,4.8004e-05,4.76e-06,0.0,0 STARLINK-3761,1 52262U 22041B   24203.48504485  .00000476  00000-0  48004-4 0  9992,2 52262  53.2172 265.5426 0001698  83.1168 277.0017 15.08834656125570,6917.897,95.438,540.936,538.587,0.0
52262.0,STARLINK-3761,PAYLOAD,2024-07-22 13:04:38,15.08839327,0.0001448,53.2167,260.7841,85.6695,274.4463,5.2146e-05,5.42e-06,0.0,0 STARLINK-3761,1 52262U 22041B   24204.54488851  .00000542  00000-0  52146-4 0  9994,2 52262  53.2167 260.7841 0001448  85.6695 274.4463 15.08839327125731,6917.882,95.438,540.749,538.746,0.0
52262.0,STARLINK-3761,PAYLOAD,2024-07-23 09:44:38,15.0884186,0.000146,53.2165,256.9181,87.8683,272.2477,0.00017372,2.478e-05,0.0,0 STARLINK-3761,1 52262U 22041B   24205.40600596  .00002478  00000-0  17372-3 0  9993,2 52262  53.2165 256.9181 0001460  87.8683 272.2477 15.08841860124643,6917.875,95.437,540.75,538.73,0.0
52262.0,STARLINK-3761,PAYLOAD,2024-07-24 03:13:53,15.08843433,0.0001403,53.2158,253.647,84.7456,275.3696,0.00014285,1.986e-05,0.0,0 STARLINK-3761,1 52262U 22041B   24206.13464575  .00001986  00000-0  14285-3 0  9992,2 52262  53.2158 253.6470 0001403  84.7456 275.3696 15.08843433125973,6917.87,95.437,540.705,538.764,0.0
52262.0,STARLINK-3761,PAYLOAD,2024-07-24 09:35:26,15.08840556,0.0001329,53.2155,252.4565,83.8026,276.3117,9.4099e-05,1.21e-05,0.0,0 STARLINK-3761,1 52262U 22041B   24206.39960828  .00001210  00000-0  94099-4 0  9994,2 52262  53.2155 252.4565 0001329  83.8026 276.3117 15.08840556124793,6917.879,95.438,540.663,538.824,0.0
